#cP2023  6 12  0  0  0.00000000      96 ORBIT IGS20 HLM  IGS
## 2266  86400.00000000   900.00000000 60107 0.0000000000000
+   32   G01G02G03G04G05G06G07G08G09G10G11G12G13G14G15G16G17
+        G18G19G20G21G22G23G24G25G26G27G28G29G30G31G32  0  0
+          0  0  0  0  0  0  0  0  0  0  0  0  0  0  0  0  0
+          0  0  0  0  0  0  0  0  0  0  0  0  0  0  0  0  0
+          0  0  0  0  0  0  0  0  0  0  0  0  0  0  0  0  0
++         2  2  2  2  2  2  1  2  1  2  2  2  2  2  2  2  2
++         2  2  2  2  2  2  2  2  2  2  2  2  2  1  2  0  0
++         0  0  0  0  0  0  0  0  0  0  0  0  0  0  0  0  0
++         0  0  0  0  0  0  0  0  0  0  0  0  0  0  0  0  0
++         0  0  0  0  0  0  0  0  0  0  0  0  0  0  0  0  0
%c G  cc GPS ccc cccc cccc cccc cccc ccccc ccccc ccccc ccccc
%c cc cc ccc ccc cccc cccc cccc cccc ccccc ccccc ccccc ccccc
%f  1.2500000  1.025000000  0.00000000000  0.000000000000000
%f  0.0000000  0.000000000  0.00000000000  0.000000000000000
%i    0    0    0    0      0      0      0      0         0
%i    0    0    0    0      0      0      0      0         0
/* RAPID ORBIT COMBINATION FROM WEIGHTED AVERAGE OF:        
/* cod emr esa gfz grg jpl ngs sio usn whu                  
/* REFERENCED TO IGS TIME (IGST) AND TO WEIGHTED MEAN POLE: 
/* PCV:IGS20_2233 OL/AL:FES2014b NONE     Y  ORB:CMB CLK:CMB
*  2023  6 12 21 45  0.00000000
PG01  -8445.727433  18639.559091 -17071.314768    178.788773  6  5  6  80       
PG02 -13204.338778  19920.263566 -10926.156993   -586.372494  7  6  4  93       
PG03   2593.450665  16767.724506 -20601.590557   -272.600828  5  8  7  72       
PG04   -420.793561  26445.705854  -1589.207301     66.634072  6  6  5 101       
PG05  14467.263800  -8893.447085  20274.266414   -130.867488  6  4  5  89       
PG06  21675.280715  -2107.153256 -15214.118369    585.328627  5  3  5  86       
PG07   7803.250986  13598.650191  21889.146786    153.946417  5  6  4  92       
PG08  -7220.000738  21778.198613  12960.612750   -127.091613  4  4  6  93       
PG09   7583.891622  24157.341173   7875.720126   -137.220587  3  2  6  75       
PG10 -24234.381389 -11206.406383  -1134.944728    -40.901184  6  5  7 107       
PG11  23345.646558 -12521.958681  -1566.240286   -233.091356  3  4  3  92       
PG12   1893.593488 -16047.236222 -21370.169711   -387.813548  7  5  3  97       
PG13  12958.619639 -15340.589480  17096.733367    533.143614  4  4  6 116       
PG14  22921.663575  13513.861980   1429.246658     88.563668  8  8  6  52       
PG15   4286.168717 -22999.539568  11865.462384     48.280150  6  5  5  99       
PG16 -18269.894398   3984.665086  18728.932721   -492.097450  6  5  8  79       
PG17  13056.370605  12118.751491 -19239.121347    718.150695  7  6  7  61       
PG18 -10113.003483 -11189.382751  21870.219036   -305.095700  8  6  7  97       
PG19  14808.284346   3728.368490 -21976.148870    329.738857  5  7  6  56       
PG20  21702.900975  -4325.910555  14580.374245    428.352238  5     4  85       
PG21 -15194.629128  19355.199261  -8220.817636    153.150598  6  5  5  92       
PG22 -14971.704817    439.562933 -21478.429578    496.870902  7  8  8 109       
PG23 -18353.084339 -16280.627079  10376.387817     32.600849 10 10  7 104       
PG24  10760.914616 -20638.066147 -12758.880856   -222.670260  5  6  5 114       
PG25 -11367.302428 -18214.679116 -16117.902882    449.377627  8  5  6  90       
PG26 -24783.351321  -2695.598096   9522.522608    239.169354  6  5  8  70       
PG27 -12896.042305  11578.778104  19752.124657     17.765692  5  5  6  82       
PG28 -20871.166220    775.341225 -16427.912243     83.052715  5  6  5  86       
PG29  -3742.207514 -25510.064596   6118.916882   -602.591955  4  5  7  44       
PG30  17155.535677   6058.561217  19548.459993   -511.430882  5  5  4  75       
PG31 -24143.559707   9633.679627  -6627.057295   -218.042568  6  4  3  86       
PG32 -14705.094597  -9096.319724 -20033.758512   -498.794793  5  5  6  95       
*  2023  6 12 22  0  0.00000000
PG01  -9995.941951  19540.282250 -15036.945970    178.786574  6  6  6  91       
PG02 -14252.579828  20494.505884  -8349.857703   -586.369210  7  6  4  98       
PG03    415.867847  15825.021771 -21482.572031   -272.588932  5  8  7  92       
PG04   -697.539058  26114.616958  -4427.924757     66.643314  6  6  5 101       
PG05  16544.171008  -7944.939140  19064.172418   -130.869070  6  4  6  76       
PG06  20216.927716   -954.685165 -17192.578944    585.326998  6  3  5  53       
PG07   5817.950761  14941.788884  21579.988354    153.937491  5  6  4  99       
PG08  -7640.375306  20183.252017  15143.184165   -127.091947  4  4  6 107       
PG09   7411.642824  24938.160852   5159.416786   -137.212704  3  2  6  92       
PG10 -24146.615080 -11362.673488   1738.447458    -40.902427  7  6  6 109       
PG11  23186.914729 -12132.667875  -4406.540507   -233.104822  4  4  4  98       
PG12   4029.397586 -14922.487092 -21882.625978   -387.817953  7  5  3  99       
PG13  13010.144461 -13248.638136  18730.850992    533.148156  5  4  6 110       
PG14  22511.855764  13616.747294   4227.792121     88.574740  8  8  6  81       
PG15   4935.280250 -21542.823906  14081.358529     48.283491  6  5  5  98       
PG16 -20026.924048   2842.497927  17137.536318   -492.093822  6  3  8 105       
PG17  12996.385106  14318.034767 -17733.847598    718.151239  7  6  7  86       
PG18  -8043.951293 -12598.864203  21948.448281   -305.109216  8  6  7  97       
PG19  14752.311499   6159.818186 -21483.037184    329.743520  6  7  7  76       
PG20  23134.735408  -3697.015416  12362.599293    428.350271  6     4  81       
PG21 -16059.113173  19676.490231  -5463.342352    153.150696  6  4  5 100       
PG22 -14993.944835  -2109.720260 -21379.781085    496.876355  7  8  8 115       
PG23 -17070.823794 -15924.580815  12816.386235     32.604114  9  9  8 104       
PG24  11940.918944 -21249.315894 -10384.434669   -222.682095  5  6  5 115       
PG25  -9583.758719 -17587.912742 -17886.361469    449.379870  8  5  6 101       
PG26 -25573.713005  -3297.156356   6956.313648    239.168680  6  4  8 104       
PG27 -13231.575771   9222.292635  20769.327833     17.758827  6  5  7  95       
PG28 -19393.627893   -544.558095 -18159.255630     83.053680  4  6  5  76       
PG29  -3537.619756 -26058.996228   3294.536650   -602.592916  4  5  7  86       
PG30  15348.988932   7441.039648  20529.768646   -511.428716  6  5  3  98       
PG31 -23540.133826   8958.632680  -9250.366123   -218.043184  6  4  3  96       
PG32 -14826.983523 -11346.819128 -18785.155407   -498.802369  6  5  7  95       
*  2023  6 12 22 15  0.00000000
PG01 -11303.512940  20377.915409 -12745.145616    178.784379  6  6  6  77       
PG02 -15044.494289  20915.060330  -5625.889874   -586.366057  6  6  4  99       
PG03  -1884.749966  14975.902173 -21999.066913   -272.577076  6  7  7  76       
PG04  -1028.483548  25482.544872  -7189.881244     66.652515  6  5  5 100       
PG05  18518.107554  -7158.440082  17522.388781   -130.870016  5  4  6  95       
PG06  18662.376492    408.141696 -18875.034954    585.325426  6  3  6  68       
PG07   3942.206598  16354.728258  20912.772456    153.928262  5  6  4 103       
PG08  -8182.187084  18382.792130  17059.315378   -127.094346  4  4  7 106       
PG09   7225.883909  25418.236534   2353.931301   -137.204779  4  3  6  92       
PG10 -23768.230393 -11406.637655   4582.542540    -40.904408  8  7  6 107       
PG11  22791.263421 -11549.529821  -7170.805802   -233.118297  5  4  4  99       
PG12   6256.140996 -13898.157641 -22028.185475   -387.822148  7  5  3  90       
PG13  13174.368748 -10994.767381  20035.830013    533.153145  5  4  6 114       
PG14  21821.592697  13618.144757   6954.277360     88.585881  8  8  5  76       
PG15   5721.665919 -19886.715446  16044.961634     48.286582  6  5  5 106       
PG16 -21661.102051   1886.161871  15249.573867   -492.090482  7  2  8  89       
PG17  13036.449049  16324.359176 -15912.026108    718.152486  7  6  7  78       
PG18  -6062.914680 -14111.552677  21648.804481   -305.122667  7  6  7 100       
PG19  14826.276981   8513.051333 -20629.216600    329.748298  7  7  7  73       
PG20  24338.736779  -3193.059322   9930.376422    428.348460  6  2  4  79       
PG21 -16666.683904  19816.874275  -2605.358061    153.150373  6  4  5  90       
PG22 -15144.021634  -4618.905608 -20897.858394    496.881767  8  9  8  87       
PG23 -15522.269580 -15550.903824  15037.585036     32.607335  9  9  8 109       
PG24  12893.640907 -21723.266114  -7829.974432   -222.693928  5  6  5 113       
PG25  -7601.239740 -16991.098455 -19356.973147    449.382142  8  5  5 101       
PG26 -26111.226885  -3769.751862   4272.323427    239.167908  7  4  8  91       
PG27 -13703.589437   6794.832111  21418.321988     17.751970  6  6  7  90       
PG28 -17851.976527  -2055.864114 -19578.590597     83.054597  4  6  5  95       
PG29  -3338.458295 -26294.626140    413.083953   -602.594057  4  5  7  70       
PG30  13539.068875   8966.885913  21162.983922   -511.426484  6  5  3  95       
PG31 -22746.600776   8080.574450 -11719.248396   -218.043727  6  4  2  81       
PG32 -15039.662447 -13427.013914 -17210.546798   -498.809990  6  5  7 105       
EOF
